[{"OBJECT_NAME":"STARLINK-3929","OBJECT_ID":"2022-051AL","EPOCH":"2026-03-09T10:31:42.789216","MEAN_MOTION":15.08834949,"ECCENTRICITY":0.0001356,"INCLINATION":53.2165,"RA_OF_ASC_NODE":120.2471,"ARG_OF_PERICENTER":90.0271,"MEAN_ANOMALY":270.0877,"EPHEMERIS_TYPE":0,"CLASSIFICATION_TYPE":"U","NORAD_CAT_ID":52567,"ELEMENT_SET_NO":999,"REV_AT_EPOCH":21154,"BSTAR":-6.1348231e-5,"MEAN_MOTION_DOT":-1.264e-5,"MEAN_MOTION_DDOT":0},{"OBJECT_NAME":"OKEAN-3","OBJECT_ID":"1991-039A","EPOCH":"2026-03-09T19:29:17.530944","MEAN_MOTION":15.0480588,"ECCENTRICITY":0.00139411,"INCLINATION":82.519,"RA_OF_ASC_NODE":336.7249,"ARG_OF_PERICENTER":337.9296,"MEAN_ANOMALY":22.1329,"EPHEMERIS_TYPE":0,"CLASSIFICATION_TYPE":"U","NORAD_CAT_ID":21397,"ELEMENT_SET_NO":999,"REV_AT_EPOCH":86505,"BSTAR":0.00031884915,"MEAN_MOTION_DOT":4.536e-5,"MEAN_MOTION_DDOT":0}]
